COSMOS 2433 (720)       
1 32275U 07052A   25016.26227711 -.00000075  00000+0  00000+0 0  9996
2 32275  65.8487 333.2763 0004547 269.1308  90.8120  2.13103995134040
COSMOS 2432 (719)       
1 32276U 07052B   25016.60086613 -.00000075  00000+0  00000+0 0  9999
2 32276  65.8636 333.3830 0011848 320.0966 245.1551  2.13103230134070
COSMOS 2434 (721)       
1 32393U 07065A   25016.81706733  .00000057  00000+0  00000+0 0  9997
2 32393  64.3170 209.3436 0005032  73.5445 243.8777  2.13101396132761
COSMOS 2436 (723)       
1 32395U 07065C   25016.67023443  .00000056  00000+0  00000+0 0  9992
2 32395  64.3256 209.4154 0017576  10.0861 329.1755  2.13100198132718
COSMOS 2456 (730)       
1 36111U 09070A   25016.95326993 -.00000013  00000+0  00000+0 0  9991
2 36111  64.7160  88.6248 0004513 296.7050 280.1278  2.13103596117463
COSMOS 2457 (733)       
1 36112U 09070B   25016.50787431 -.00000012  00000+0  00000+0 0  9990
2 36112  64.7006  88.4943 0004177 175.7702 191.5411  2.13101033117423
COSMOS 2460 (732)       
1 36402U 10007C   25016.74464031 -.00000074  00000+0  00000+0 0  9996
2 36402  65.7005 331.8883 0002479 308.2253 235.4400  2.13106208115726
COSMOS 2476 (744)       
1 37867U 11064A   25016.37399089 -.00000010  00000+0  00000+0 0  9995
2 37867  64.9845  90.3587 0024341 236.8255 166.7123  2.13101529102751
COSMOS 2477 (745)       
1 37868U 11064B   25013.06220729 -.00000024  00000+0  00000+0 0  9998
2 37868  64.9900  90.5456 0021424 237.3963 324.6358  2.13102857102673
COSMOS 2475 (743)       
1 37869U 11064C   25016.90714572 -.00000011  00000+0  00000+0 0  9995
2 37869  64.9987  90.4320 0026531 251.7192 337.4545  2.13101570102756
COSMOS 2485 (747)       
1 39155U 13019A   25016.25826429 -.00000009  00000+0  00000+0 0  9997
2 39155  65.1401  90.9909 0024736 232.8806 126.9538  2.13104360 91261
COSMOS 2492 (754)       
1 39620U 14012A   25016.21397201 -.00000075  00000+0  00000+0 0  9998
2 39620  65.5809 331.4521 0014769 317.8612  42.0211  2.13103197 84222
COSMOS 2500 (755)       
1 40001U 14032A   25016.39052929 -.00000075  00000+0  00000+0 0  9999
2 40001  65.5175 331.2346 0006578 223.1067 136.8387  2.13105939 82442
COSMOS 2501 (702K)      
1 40315U 14075A   25016.17692862  .00000054  00000+0  00000+0 0  9992
2 40315  63.6176 208.2792 0019106 203.3932 156.5424  2.13101433 78834
COSMOS 2514 (751)       
1 41330U 16008A   25016.16003877 -.00000075  00000+0  00000+0 0  9993
2 41330  65.3106 330.6979 0010671 223.0461 136.8672  2.13102661 69600
COSMOS 2522 (752)       
1 42939U 17055A   25015.99956122  .00000055  00000+0  00000+0 0  9999
2 42939  64.0788 209.4984 0005693 225.6390 134.3403  2.13101956 56959
COSMOS 2527 (756)       
1 43508U 18053A   25016.42850825 -.00000009  00000+0  00000+0 0  9993
2 43508  65.2994  91.1816 0009358 233.2749 126.7001  2.13102249 51263
COSMOS 2529 (757)       
1 43687U 18086A   25016.52695572  .00000056  00000+0  00000+0 0  9995
2 43687  64.2946 210.0505 0006615 258.9949 100.9558  2.13102060 48272
COSMOS 2534 (758)       
1 44299U 19030A   25016.81960435  .00000057  00000+0  00000+0 0  9991
2 44299  64.3678 210.0140 0008858 288.7692  69.9329  2.13102272 43918
COSMOS 2544 (759)       
1 44850U 19088A   25016.37275200 -.00000009  00000+0  00000+0 0  9995
2 44850  65.2865  91.0165 0014578 254.2784 105.6218  2.13102061 39702
COSMOS 2545 (760)       
1 45358U 20018A   25016.56937793 -.00000076  00000+0  00000+0 0  9991
2 45358  64.6491 330.5205 0010635 255.6323 104.2480  2.13102564 37650
COSMOS 2547 (705K)      
1 46805U 20075A   25016.28633557  .00000056  00000+0  00000+0 0  9999
2 46805  64.5973 209.7369 0005688 230.3744 129.6009  2.13102974 32893
COSMOS 2557 (706K)      
1 52984U 22075A   25014.10643219 -.00000083  00000+0  00000+0 0  9992
2 52984  64.5829 332.7169 0013638 282.1227  77.7148  2.13101795 19654
COSMOS 2559 (707K)      
1 54031U 22130A   25016.39630788 -.00000077  00000+0  00000+0 0  9992
2 54031  64.5538 332.7471 0007031 237.1122 122.8165  2.13101277 17672
COSMOS 2564 (761)       
1 54377U 22161A   25016.58614579  .00000056  00000+0  00000+0 0  9996
2 54377  64.7389 209.8701 0007872 204.1274 155.8605  2.13102126 16629
COSMOS 2569 (703K)      
1 57517U 23114A   25016.13256833 -.00000010  00000+0  00000+0 0  9991
2 57517  65.0161  90.0970 0011422 289.7683  70.1702  2.13104198 11248
